NORAD_CAT_ID,OBJECT_NAME,OBJECT_TYPE,EPOCH,MEAN_MOTION,ECCENTRICITY,INCLINATION,RA_OF_ASC_NODE,ARG_OF_PERICENTER,MEAN_ANOMALY,BSTAR,MEAN_MOTION_DOT,MEAN_MOTION_DDOT,TLE_LINE0,TLE_LINE1,TLE_LINE2,SEMIMAJOR_AXIS,PERIOD,APOGEE,PERIGEE,DECAYED
52837.0,STARLINK-4036,PAYLOAD,2023-06-16 18:24:38,15.08836573,9.03e-05,53.2162,189.4786,81.3116,278.7978,5.0228e-05,5.12e-06,0.0,0 STARLINK-4036,1 52837U 22062H   23167.76710789  .00000512  00000-0  50228-4 0  9990,2 52837  53.2162 189.4786 0000903  81.3116 278.7978 15.08836573 55285,6917.891,95.438,540.381,539.131,0.0
52837.0,STARLINK-4036,PAYLOAD,2023-06-17 05:32:20,15.08837248,8.99e-05,53.2162,187.397,80.8806,279.2288,6.5378e-05,7.53e-06,0.0,0 STARLINK-4036,1 52837U 22062H   23168.23078785  .00000753  00000-0  65378-4 0  9995,2 52837  53.2162 187.3970 0000899  80.8806 279.2288 15.08837248 55359,6917.889,95.438,540.376,539.132,0.0
52837.0,STARLINK-4036,PAYLOAD,2023-06-17 08:43:06,15.0883857,8.92e-05,53.216,186.8022,79.723,280.3862,5.1062e-05,5.25e-06,0.0,0 STARLINK-4036,1 52837U 22062H   23168.36326764  .00000525  00000-0  51062-4 0  9994,2 52837  53.2160 186.8022 0000892  79.7230 280.3862 15.08838570 55372,6917.885,95.438,540.367,539.133,0.0
52837.0,STARLINK-4036,PAYLOAD,2023-06-17 13:29:15,15.08840693,9.04e-05,53.2161,185.9102,80.3424,279.767,6.6103e-05,7.64e-06,0.0,0 STARLINK-4036,1 52837U 22062H   23168.56198584  .00000764  00000-0  66103-4 0  9990,2 52837  53.2161 185.9102 0000904  80.3424 279.7670 15.08840693 55401,6917.878,95.438,540.369,539.118,0.0
52837.0,STARLINK-4036,PAYLOAD,2023-06-18 18:06:12,15.08839769,9.62e-05,53.2165,180.5579,81.7227,278.3874,2.2584e-05,7.2e-07,0.0,0 STARLINK-4036,1 52837U 22062H   23169.75430947  .00000072  00000-0  22584-4 0  9991,2 52837  53.2165 180.5579 0000962  81.7227 278.3874 15.08839769 55586,6917.881,95.438,540.412,539.081,0.0
52837.0,STARLINK-4036,PAYLOAD,2023-06-19 06:49:17,15.08842232,9.77e-05,53.2164,178.1787,82.3227,277.7877,5.7853e-05,6.33e-06,0.0,0 STARLINK-4036,1 52837U 22062H   23170.28422674  .00000633  00000-0  57853-4 0  9999,2 52837  53.2164 178.1787 0000977  82.3227 277.7877 15.08842232 55666,6917.874,95.437,540.414,539.063,0.0
52837.0,STARLINK-4036,PAYLOAD,2023-06-19 17:56:59,15.08841101,9.06e-05,53.2163,176.0965,86.9861,273.1235,4.5972e-05,4.44e-06,0.0,0 STARLINK-4036,1 52837U 22062H   23170.74790718  .00000444  00000-0  45972-4 0  9996,2 52837  53.2163 176.0965 0000906  86.9861 273.1235 15.08841101 55736,6917.877,95.437,540.369,539.115,0.0
52837.0,STARLINK-4036,PAYLOAD,2023-06-20 00:18:31,15.08838134,9.24e-05,53.2156,174.9086,79.3363,280.7733,7.1902e-05,8.57e-06,0.0,0 STARLINK-4036,1 52837U 22062H   23171.01286860  .00000857  00000-0  71902-4 0  9995,2 52837  53.2156 174.9086 0000924  79.3363 280.7733 15.08838134 55775,6917.886,95.438,540.39,539.112,0.0
52837.0,STARLINK-4036,PAYLOAD,2023-06-20 11:26:13,15.08840844,9.42e-05,53.2157,172.8271,78.2899,281.8199,6.0176e-05,6.7e-06,0.0,0 STARLINK-4036,1 52837U 22062H   23171.47654756  .00000670  00000-0  60176-4 0  9992,2 52837  53.2157 172.8271 0000942  78.2899 281.8199 15.08840844 55848,6917.878,95.438,540.394,539.091,0.0
52837.0,STARLINK-4036,PAYLOAD,2023-06-21 09:41:37,15.08838348,0.0001026,53.2159,168.6626,88.4696,271.6414,1.6552e-05,-2.4e-07,0.0,0 STARLINK-4036,1 52837U 22062H   23172.40391062 -.00000024  00000-0  16552-4 0  9997,2 52837  53.2159 168.6626 0001026  88.4696 271.6414 15.08838348 55987,6917.885,95.438,540.46,539.041,0.0
52837.0,STARLINK-4036,PAYLOAD,2023-06-22 15:53:57,15.0883628,0.0001066,53.2159,163.0128,80.511,279.6002,1.4576e-05,-5.6e-07,0.0,0 STARLINK-4036,1 52837U 22062H   23173.66247350 -.00000056  00000-0  14576-4 0  9995,2 52837  53.2159 163.0128 0001066  80.5110 279.6002 15.08836280 56177,6917.892,95.438,540.494,539.019,0.0
52837.0,STARLINK-4036,PAYLOAD,2023-06-24 01:17:04,15.08834054,0.0001033,53.2157,156.7689,82.2843,277.8266,1.2225e-05,-9.3e-07,0.0,0 STARLINK-4036,1 52837U 22062H   23175.05351876 -.00000093  00000-0  12225-4 0  9999,2 52837  53.2157 156.7689 0001033  82.2843 277.8266 15.08834054 56384,6917.899,95.438,540.478,539.049,0.0
52837.0,STARLINK-4036,PAYLOAD,2023-06-25 02:43:13,15.08839829,0.0001082,53.2164,152.0122,90.1473,269.9643,5.6921e-05,6.18e-06,0.0,0 STARLINK-4036,1 52837U 22062H   23176.11335597  .00000618  00000-0  56921-4 0  9992,2 52837  53.2164 152.0122 0001082  90.1473 269.9643 15.08839829 56548,6917.881,95.438,540.494,538.997,0.0
52837.0,STARLINK-4036,PAYLOAD,2023-06-25 10:40:09,15.08846898,0.0001139,53.2161,150.5252,89.0266,271.0857,0.00011508,1.544e-05,0.0,0 STARLINK-4036,1 52837U 22062H   23176.44454946  .00001544  00000-0  11508-3 0  9998,2 52837  53.2161 150.5252 0001139  89.0266 271.0857 15.08846898 56592,6917.859,95.437,540.512,538.936,0.0
52837.0,STARLINK-4036,PAYLOAD,2023-06-26 02:34:01,15.08837813,0.0001167,53.2157,147.5512,88.3464,271.7662,5.226e-05,5.44e-06,0.0,0 STARLINK-4036,1 52837U 22062H   23177.10695832  .00000544  00000-0  52260-4 0  9993,2 52837  53.2157 147.5512 0001167  88.3464 271.7662 15.08837813 56694,6917.887,95.438,540.559,538.945,0.0
52837.0,STARLINK-4036,PAYLOAD,2023-06-27 02:24:48,15.08828924,0.0001169,53.2162,143.0879,93.1404,266.9722,0.00011198,1.494e-05,0.0,0 STARLINK-4036,1 52837U 22062H   23178.10056323  .00001494  00000-0  11198-3 0  9999,2 52837  53.2162 143.0879 0001169  93.1404 266.9722 15.08828924 56840,6917.914,95.438,540.588,538.971,0.0
52837.0,STARLINK-4036,PAYLOAD,2023-06-27 07:10:57,15.08842403,0.0001186,53.2161,142.1961,95.8994,264.2134,2.878e-06,-2.42e-06,0.0,0 STARLINK-4036,1 52837U 22062H   23178.29927731 -.00000242  00000-0  28780-5 0  9997,2 52837  53.2161 142.1961 0001186  95.8994 264.2134 15.08842403 56872,6917.873,95.437,540.559,538.918,0.0
52837.0,STARLINK-4036,PAYLOAD,2023-06-29 03:41:45,15.08842676,0.0001288,53.2167,133.8711,87.6415,272.4725,6.2126e-05,7.01e-06,0.0,0 STARLINK-4036,1 52837U 22062H   23180.15399738  .00000701  00000-0  62126-4 0  9995,2 52837  53.2167 133.8711 0001288  87.6415 272.4725 15.08842676 57159,6917.872,95.437,540.628,538.846,0.0
52837.0,STARLINK-4036,PAYLOAD,2023-07-01 01:47:57,15.08835835,0.0001183,53.2167,125.2499,89.6129,270.4999,-6.0338e-05,-1.248e-05,0.0,0 STARLINK-4036,1 52837U 22062H   23182.07496762 -.00001248  00000-0 -60338-4 0  9995,2 52837  53.2167 125.2499 0001183  89.6129 270.4999 15.08835835 57447,6917.893,95.438,540.577,538.94,0.0
52837.0,STARLINK-4036,PAYLOAD,2023-07-02 04:49:30,15.08819698,0.0001234,53.2168,120.1947,87.7454,272.3679,0.00026615,3.948e-05,0.0,0 STARLINK-4036,1 52837U 22062H   23183.20105107  .00003948  00000-0  26615-3 0  9997,2 52837  53.2168 120.1947 0001234  87.7454 272.3679 15.08819698 57611,6917.942,95.439,540.661,538.954,0.0
52837.0,STARLINK-4036,PAYLOAD,2023-07-02 12:46:26,15.088373,0.0001107,53.2168,118.7074,93.7792,266.3327,1.4578e-06,-2.65e-06,0.0,0 STARLINK-4036,1 52837U 22062H   23183.53224871 -.00000265  00000-0  14578-5 0  9990,2 52837  53.2168 118.7074 0001107  93.7792 266.3327 15.08837300 57664,6917.889,95.438,540.519,538.988,0.0
52837.0,STARLINK-4036,PAYLOAD,2023-07-03 04:40:17,15.08841758,0.0001128,53.2167,115.7335,96.2267,263.8854,0.00010357,1.361e-05,0.0,0 STARLINK-4036,1 52837U 22062H   23184.19464471  .00001361  00000-0  10357-3 0  9991,2 52837  53.2167 115.7335 0001128  96.2267 263.8854 15.08841758 57768,6917.875,95.437,540.52,538.96,0.0
52837.0,STARLINK-4036,PAYLOAD,2023-07-04 01:20:18,15.0884001,0.0001172,53.2168,111.8672,92.301,267.8116,2.7471e-05,1.49e-06,0.0,0 STARLINK-4036,1 52837U 22062H   23185.05576995  .00000149  00000-0  27471-4 0  9991,2 52837  53.2168 111.8672 0001172  92.3010 267.8116 15.08840010 57891,6917.88,95.438,540.556,538.935,0.0
52837.0,STARLINK-4036,PAYLOAD,2023-07-05 01:11:06,15.08833044,0.0001204,53.2162,107.4076,89.9781,270.1349,-3.0506e-05,-7.73e-06,0.0,0 STARLINK-4036,1 52837U 22062H   23186.04937733 -.00000773  00000-0 -30506-4 0  9990,2 52837  53.2162 107.4076 0001204  89.9781 270.1349 15.08833044 58049,6917.902,95.438,540.6,538.934,0.0
52837.0,STARLINK-4036,PAYLOAD,2023-07-05 13:54:10,15.08838079,0.0001183,53.2164,105.0276,89.1132,270.9995,3.2367e-05,2.27e-06,0.0,0 STARLINK-4036,1 52837U 22062H   23186.57929258  .00000227  00000-0  32367-4 0  9990,2 52837  53.2164 105.0276 0001183  89.1132 270.9995 15.08838079 58122,6917.886,95.438,540.57,538.933,0.0
52837.0,STARLINK-4036,PAYLOAD,2023-07-06 01:01:52,15.08848219,0.0001176,53.2166,102.9462,84.6652,275.4474,0.00010346,1.359e-05,0.0,0 STARLINK-4036,1 52837U 22062H   23187.04296320  .00001359  00000-0  10346-3 0  9999,2 52837  53.2166 102.9462 0001176  84.6652 275.4474 15.08848219 58192,6917.855,95.437,540.534,538.907,0.0
52837.0,STARLINK-4036,PAYLOAD,2023-07-06 18:31:07,15.08836452,0.0001231,53.2165,99.6771,80.7605,279.3526,8.4718e-05,1.061e-05,0.0,0 STARLINK-4036,1 52837U 22062H   23187.77160945  .00001061  00000-0  84718-4 0  9997,2 52837  53.2165  99.6771 0001231  80.7605 279.3526 15.08836452 58303,6917.891,95.438,540.608,538.905,0.0
52837.0,STARLINK-4036,PAYLOAD,2023-07-08 00:43:26,15.08842854,0.0001125,53.2169,94.0267,87.7047,272.4074,-1.4671e-05,-5.21e-06,0.0,0 STARLINK-4036,1 52837U 22062H   23189.03016936 -.00000521  00000-0 -14671-4 0  9991,2 52837  53.2169  94.0267 0001125  87.7047 272.4074 15.08842854 58490,6917.872,95.437,540.515,538.958,0.0
52837.0,STARLINK-4036,PAYLOAD,2023-07-08 19:48:05,15.08826276,0.0001181,53.217,90.459,90.5777,269.535,-6.4788e-05,-1.318e-05,0.0,0 STARLINK-4036,1 52837U 22062H   23189.82506268 -.00001318  00000-0 -64788-4 0  9999,2 52837  53.2170  90.4590 0001181  90.5777 269.5350 15.08826276 58613,6917.922,95.438,540.604,538.97,0.0
52837.0,STARLINK-4036,PAYLOAD,2023-07-09 11:41:56,15.08832677,0.0001178,53.2172,87.4852,93.0011,267.1116,3.9739e-05,3.45e-06,0.0,0 STARLINK-4036,1 52837U 22062H   23190.48745837  .00000345  00000-0  39739-4 0  9995,2 52837  53.2172  87.4852 0001178  93.0011 267.1116 15.08832677 58714,6917.903,95.438,540.583,538.953,0.0
